QIANFAN-49              
1 62250U 24232P   25244.92724856  .00000076  00000+0  98884-4 0  9991
2 62250  88.9948  51.5076 0015818 125.3529 234.9103 13.50958648 54096
QIANFAN-50              
1 62251U 24232Q   25244.95201214  .00000068  00000+0  86449-4 0  9998
2 62251  88.9953  51.5076 0017441 126.9059 233.3693 13.50965206 54121
QIANFAN-51              
1 62252U 24232R   25244.93555623  .00000086  00000+0  11505-3 0  9993
2 62252  88.9947  51.5095 0014873 129.6048 230.6419 13.50967689 54112
QIANFAN-52              
1 62253U 24232S   25244.89030533  .00000097  00000+0  13066-3 0  9993
2 62253  88.9943  51.3915 0017014 123.2817 236.9966 13.50962270 54197
QIANFAN-53              
1 62254U 24232T   25244.94378269  .00000075  00000+0  98066-4 0  9991
2 62254  88.9950  51.4830 0015879 123.8766 236.3898 13.50966163 54169
QIANFAN-54              
1 62255U 24232U   25244.91085333  .00000070  00000+0  90490-4 0  9994
2 62255  88.9942  51.1736 0003190 133.5000 226.6417 13.50968277 85661
QIANFAN-55              
1 62785U 25016A   25244.93667347  .00000101  00000+0  13865-3 0  9991
2 62785  88.9799 113.7245 0015653 286.0523  73.8904 13.50962445 33443
QIANFAN-56              
1 62786U 25016B   25244.95329162  .00000104  00000+0  14245-3 0  9990
2 62786  88.9772 113.5869 0014352 289.0103  70.9493 13.50961412 33496
